BADR-5                  
1 36592U 10025A   26195.13734169  .00000147  00000+0  00000+0 0  9990
2 36592   0.0482 118.6681 0005099  77.6881 175.5465  1.00269889 53488
COMS 1                  
1 36744U 10032A   26195.05322677 -.00000258  00000+0  00000+0 0  9999
2 36744   4.8718  75.0315 0011263  14.6852 187.9641  0.99168235 51357
ARABSAT-5A              
1 36745U 10032B   26195.13734169  .00000147  00000+0  00000+0 0  9998
2 36745   0.1087  66.0269 0005725  56.2686 249.6444  1.00273689 58916
ECHOSTAR 15             
1 36792U 10034A   26195.21912132 -.00000007  00000+0  00000+0 0  9995
2 36792   0.0501 266.5791 0001820 186.0098 159.5585  1.00271686 58590
BEIDOU-2 IGSO-1         
1 36828U 10036A   26193.88960631 -.00000103  00000+0  00000+0 0  9992
2 36828  54.3059 162.7278 0059161 225.3005 330.1612  1.00264571 58350
NILESAT 201             
1 36830U 10037A   26194.47961264 -.00000061  00000+0  00000+0 0  9998
2 36830   0.0241 122.3173 0005477  16.5206 318.1955  1.00271853 58643
RASCOM-QAF 1R           
1 36831U 10037B   26195.13162167  .00000012  00000+0  00000+0 0  9993
2 36831   0.0318  84.7891 0006428  18.6076 238.8826  1.00273025 58572
AEHF-1 (USA 214)        
1 36868U 10039A   26194.81850519  .00000136  00000+0  00000+0 0  9991
2 36868   8.2843  67.6978 0003707  37.6609 150.9359  1.00273818 53920
XM-5                    
1 37185U 10053A   26194.27598828 -.00000026  00000+0  00000+0 0  9991
2 37185   0.0648 265.0318 0001728 322.3275  47.9546  1.00270903 57741
BSAT-3B                 
1 37207U 10056B   26195.01052281 -.00000356  00000+0  00000+0 0  9996
2 37207   0.0802 246.7067 0002601 296.3101 222.4830  1.00271713 52363
BEIDOU-2 G4             
1 37210U 10057A   26195.09170696 -.00000122  00000+0  00000+0 0  9991
2 37210   3.7107  68.7710 0005715 184.4248 231.7012  1.00269789 57562
SKYTERRA 1              
1 37218U 10061A   26195.11127419 -.00000127  00000+0  00000+0 0  9997
2 37218   5.1802  50.8080 0002543  24.6642 155.2388  1.00270217 57462
HYLAS 1                 
1 37237U 10065A   26194.86294845  .00000136  00000+0  00000+0 0  9990
2 37237   5.7087  72.6889 0001217 148.3581  51.9406  1.00640170  7159
INTELSAT 17 (IS-17)     
1 37238U 10065B   26195.14436174 -.00000008  00000+0  00000+0 0  9995
2 37238   0.0079 160.8988 0002562 323.4150 285.6588  1.00270500 53515
BEIDOU-2 IGSO-2         
1 37256U 10068A   26194.65354440 -.00000188  00000+0  00000+0 0  9997
2 37256  47.4995 271.5017 0056984 213.7588 149.8536  1.00273377 57066
EUTELSAT KA-SAT 9A      
1 37258U 10069A   26195.13309500  .00000055  00000+0  00000+0 0  9993
2 37258   0.0613 354.8085 0004449 150.1140 203.9806  1.00273059 44275
HISPASAT 30W-5          
1 37264U 10070A   26195.12538162 -.00000222  00000+0  00000+0 0  9996
2 37264   0.0269 111.9940 0005553  14.9124 180.2221  1.00270601 53455
KOREASAT 6              
1 37265U 10070B   26195.16299514 -.00000118  00000+0  00000+0 0  9990
2 37265   0.0046 104.1390 0002468  24.4698  21.9917  1.00270973 57040
BEIDOU-2 IGSO-3         
1 37384U 11013A   26193.51258941 -.00000165  00000+0  00000+0 0  9998
2 37384  62.4426  39.9128 0035266 183.3051 358.3524  1.00260977 55918
INTELSAT 28 (IS-28)     
1 37392U 11016A   26195.12503497 -.00000233  00000+0  00000+0 0  9994
2 37392   1.8736  82.2877 0003704  40.6462 182.3500  1.00271208 53559
YAHSAT 1A               
1 37393U 11016B   26194.00112979  .00000000  00000+0  00000+0 0  9993
2 37393   0.0260  57.0637 0003230  58.4864 228.2504  1.00273826 42666
SBIRS GEO-1 (USA 230)   
1 37481U 11019A   26195.14158838  .00000090  00000+0  00000+0 0  9993
2 37481   4.5942  53.0989 0002000  52.0446 289.6374  1.00272375 55664
TELSTAR 14R             
1 37602U 11021A   26195.18965869 -.00000286  00000+0  00000+0 0  9993
2 37602   0.0846  85.0018 0001603   1.2797 211.0538  1.00270425 56109
GSAT-8                  
1 37605U 11022A   26195.14219506  .00000076  00000+0  00000+0 0  9999
2 37605   2.1985  81.4944 0002736 165.0790 151.7093  1.00272834 53487
ST-2                    
1 37606U 11022B   26195.14878176 -.00000218  00000+0  00000+0 0  9993
2 37606   0.0175  50.7556 0001452  78.7486 304.0881  1.00272058 55545
ZHONGXING-10            
1 37677U 11026A   26195.07697355 -.00000194  00000+0  00000+0 0  9998
2 37677   1.1132  83.8809 0003210  24.6960 296.5408  1.00268249 55263
SES-3                   
1 37748U 11035A   26195.12419140 -.00000109  00000+0  00000+0 0  9993
2 37748   1.3939  82.7881 0001913  31.1777 119.7431  1.00271337 54863
KAZSAT-2                
1 37749U 11035B   26194.79203877 -.00000202  00000+0  00000+0 0  9998
2 37749   0.0258 114.1428 0002151  59.1052 130.0314  1.00269151 53666
BEIDOU-2 IGSO-4         
1 37763U 11038A   26193.91136250 -.00000017  00000+0  00000+0 0  9994
2 37763  54.6038 165.4445 0160342 231.4539 316.2369  1.00279714 54905
ASTRA 1N                
1 37775U 11041A   26194.77865382  .00000115  00000+0  00000+0 0  9999
2 37775   0.0604   5.8301 0005677 109.5149 115.8161  1.00270585 44797
BSAT-3C (JCSAT-110R)    
1 37776U 11041B   26195.01052281 -.00000356  00000+0  00000+0 0  9992
2 37776   0.0222 334.8236 0000254 253.3060 177.4902  1.00270674 50739
PAKSAT-1R               
1 37779U 11042A   26195.13881502  .00000147  00000+0  00000+0 0  9992
2 37779   0.7566  84.3415 0003060 349.7614 305.8650  1.00267930 54742
