OBJECT_NAME,OBJECT_ID,EPOCH,MEAN_MOTION,ECCENTRICITY,INCLINATION,RA_OF_ASC_NODE,ARG_OF_PERICENTER,MEAN_ANOMALY,EPHEMERIS_TYPE,CLASSIFICATION_TYPE,NORAD_CAT_ID,ELEMENT_SET_NO,REV_AT_EPOCH,BSTAR,MEAN_MOTION_DOT,MEAN_MOTION_DDOT
BADR-5,2010-025A,2026-07-14T03:17:46.322016,1.00269889,.0005099,0.0482,118.6681,77.6881,175.5465,0,U,36592,999,5348,0,.147E-5,0
COMS 1,2010-032A,2026-07-14T01:16:38.792928,0.99168235,.0011263,4.8718,75.0315,14.6852,187.9641,0,U,36744,999,5135,0,-.258E-5,0
ARABSAT-5A,2010-032B,2026-07-14T03:17:46.322016,1.00273689,.0005725,0.1087,66.0269,56.2686,249.6444,0,U,36745,999,5891,0,.147E-5,0
ECHOSTAR 15,2010-034A,2026-07-14T05:15:32.082048,1.00271686,.000182,0.0501,266.5791,186.0098,159.5585,0,U,36792,999,5859,0,-.7E-7,0
BEIDOU-2 IGSO-1,2010-036A,2026-07-12T21:21:01.985184,1.00264571,.0059161,54.3059,162.7278,225.3005,330.1612,0,U,36828,999,5835,0,-.103E-5,0
NILESAT 201,2010-037A,2026-07-13T11:30:38.532096,1.00271853,.00054772,0.0241,122.3173,16.5206,318.1955,0,U,36830,999,5864,0,-.61E-6,0
RASCOM-QAF 1R,2010-037B,2026-07-14T03:09:32.112288,1.00273025,.0006428,0.0318,84.7891,18.6076,238.8826,0,U,36831,999,5857,0,.12E-6,0
AEHF-1 (USA 214),2010-039A,2026-07-13T19:38:38.848416,1.00273818,.0003707,8.2843,67.6978,37.6609,150.9359,0,U,36868,999,5392,0,.136E-5,0
XM-5,2010-053A,2026-07-13T06:37:25.387392,1.00270903,.0001728,0.0648,265.0318,322.3275,47.9546,0,U,37185,999,5774,0,-.26E-6,0
BSAT-3B,2010-056B,2026-07-14T00:15:09.170784,1.00271713,.0002601,0.0802,246.7067,296.3101,222.4830,0,U,37207,999,5236,0,-.356E-5,0
BEIDOU-2 G4,2010-057A,2026-07-14T02:12:03.481344,1.00269789,.0005715,3.7107,68.7710,184.4248,231.7012,0,U,37210,999,5756,0,-.122E-5,0
SKYTERRA 1,2010-061A,2026-07-14T02:40:14.090016,1.00270217,.0002543,5.1802,50.8080,24.6642,155.2388,0,U,37218,999,5746,0,-.127E-5,0
HYLAS 1,2010-065A,2026-07-13T20:42:38.746080,1.00640170,.0001217,5.7087,72.6889,148.3581,51.9406,0,U,37237,999,715,0,.136E-5,0
INTELSAT 17 (IS-17),2010-065B,2026-07-14T03:27:52.854336,1.00270500,.0002562,0.0079,160.8988,323.4150,285.6588,0,U,37238,999,5351,0,-.8E-7,0
BEIDOU-2 IGSO-2,2010-068A,2026-07-13T15:41:06.236160,1.00273377,.0056984,47.4995,271.5017,213.7588,149.8536,0,U,37256,999,5706,0,-.188E-5,0
EUTELSAT KA-SAT 9A,2010-069A,2026-07-14T03:11:39.408000,1.00273059,.0004449,0.0613,354.8085,150.1140,203.9806,0,U,37258,999,4427,0,.55E-6,0
HISPASAT 30W-5,2010-070A,2026-07-14T03:00:32.971968,1.00270601,.0005553,0.0269,111.9940,14.9124,180.2221,0,U,37264,999,5345,0,-.222E-5,0
KOREASAT 6,2010-070B,2026-07-14T03:54:42.780096,1.00270973,.0002468,0.0046,104.1390,24.4698,21.9917,0,U,37265,999,5704,0,-.118E-5,0
BEIDOU-2 IGSO-3,2011-013A,2026-07-12T12:18:07.725024,1.00260977,.0035266,62.4426,39.9128,183.3051,358.3524,0,U,37384,999,5591,0,-.165E-5,0
INTELSAT 28 (IS-28),2011-016A,2026-07-14T03:00:03.021408,1.00271208,.0003704,1.8736,82.2877,40.6462,182.3500,0,U,37392,999,5355,0,-.233E-5,0
YAHSAT 1A,2011-016B,2026-07-13T00:01:37.613856,1.00273826,.00032304,0.0260,57.0637,58.4864,228.2504,0,U,37393,999,4266,0,0,0
SBIRS GEO-1 (USA 230),2011-019A,2026-07-14T03:23:53.236032,1.00272375,.0002,4.5942,53.0989,52.0446,289.6374,0,U,37481,999,5566,0,.9E-6,0
TELSTAR 14R,2011-021A,2026-07-14T04:33:06.510816,1.00270425,.0001603,0.0846,85.0018,1.2797,211.0538,0,U,37602,999,5610,0,-.286E-5,0
GSAT-8,2011-022A,2026-07-14T03:24:45.653184,1.00272834,.0002736,2.1985,81.4944,165.0790,151.7093,0,U,37605,999,5348,0,.76E-6,0
ST-2,2011-022B,2026-07-14T03:34:14.744064,1.00272058,.0001452,0.0175,50.7556,78.7486,304.0881,0,U,37606,999,5554,0,-.218E-5,0
ZHONGXING-10,2011-026A,2026-07-14T01:50:50.514720,1.00268249,.000321,1.1132,83.8809,24.6960,296.5408,0,U,37677,999,5526,0,-.194E-5,0
SES-3,2011-035A,2026-07-14T02:58:50.136960,1.00271337,.0001913,1.3939,82.7881,31.1777,119.7431,0,U,37748,999,5486,0,-.109E-5,0
KAZSAT-2,2011-035B,2026-07-13T19:00:32.149728,1.00269151,.0002151,0.0258,114.1428,59.1052,130.0314,0,U,37749,999,5366,0,-.202E-5,0
BEIDOU-2 IGSO-4,2011-038A,2026-07-12T21:52:21.720000,1.00279714,.01603423,54.6038,165.4445,231.4539,316.2369,0,U,37763,999,5490,0,-.17E-6,0
ASTRA 1N,2011-041A,2026-07-13T18:41:15.690048,1.00270585,.0005677,0.0604,5.8301,109.5149,115.8161,0,U,37775,999,4479,0,.115E-5,0
BSAT-3C (JCSAT-110R),2011-041B,2026-07-14T00:15:09.170784,1.00270674,.0000254,0.0222,334.8236,253.3060,177.4902,0,U,37776,999,5073,0,-.356E-5,0
PAKSAT-1R,2011-042A,2026-07-14T03:19:53.617728,1.00267930,.000306,0.7566,84.3415,349.7614,305.8650,0,U,37779,999,5474,0,.147E-5,0
